SPAWAR-CAL-O            
1 43766U 18099J   26068.73975788  .00021069  00000+0  69663-3 0  9999
2 43766  97.4452 132.0993 0007239 285.0670  74.9770 15.31356755398280
STARLINK-2497           
1 48455U 21040AD  26068.61196118  .00010340  00000+0  36088-3 0  9993
2 48455  53.1606 178.4891 0001813  58.8025 301.3153 15.30188220266660
